1 54663U 22166X 26162.23195192 .00000082 00000+0 16634-3 0 9992 
2 54663 87.9253 245.1724 0002044 95.8491 264.2876 13.21826658170758 
1 54664U 22166Y 26162.21342759 -.00000024 00000+0 -89898-4 0 9995 
2 54664 87.9253 245.1674 0001853 95.6498 264.4847 13.21823944170727 
1 54665U 22166Z 26162.20502840 .00000010 00000+0 -70653-5 0 9998 
2 54665 87.9254 245.1852 0002155 93.0229 267.1152 13.21825350170910 
1 54666U 22166AA 26162.24624353 .00000093 00000+0 19261-3 0 9993 
2 54666 87.9253 245.1830 0001806 93.8047 266.3293 13.21826226170767 
1 54667U 22166AB 26162.25214114 .00000050 00000+0 90544-4 0 9992 
2 54667 87.9262 245.1382 0002001 96.1343 264.0019 13.21826381170698 
1 54668U 22166AC 26162.24035583 .00000060 00000+0 11271-3 0 9993 
2 54668 87.9264 245.1560 0002004 101.5163 258.6196 13.21827756170651 
1 54669U 22166AD 26162.23363896 .00000057 00000+0 10561-3 0 9991 
2 54669 87.9256 245.1713 0002609 93.1824 266.9609 13.21826783170722 
1 54670U 22166AE 26162.17980697 .00000063 00000+0 12065-3 0 9998 
2 54670 87.9254 245.1946 0001981 104.4954 255.6400 13.21826851170777 
1 54671U 22166AF 26162.22183881 .00000027 00000+0 32969-4 0 9991 
2 54671 87.9261 245.1568 0001965 94.3101 265.8258 13.21824234170754 
1 54672U 22166AG 26162.22857824 .00000035 00000+0 52697-4 0 9996 
2 54672 87.9264 245.1520 0002378 88.8650 271.2757 13.21827699170766 
1 54673U 22166AH 26162.20838145 .00000055 00000+0 10060-3 0 9999 
2 54673 87.9254 245.1708 0002204 82.6864 277.4521 13.21824371170661 
1 54674U 22166AJ 26162.20165372 .00000019 00000+0 13358-4 0 9999 
2 54674 87.9254 245.1681 0002001 102.5919 257.5439 13.21827510170654 
1 54675U 22166AK 26162.21512227 .00000042 00000+0 69180-4 0 9996 
2 54675 87.9264 245.1602 0002105 95.0893 265.0482 13.21825375170649 
1 54676U 22166AL 26162.19494687 .00000052 00000+0 94050-4 0 9998 
2 54676 87.9257 245.1796 0001817 104.5774 255.5562 13.21826525170651 
1 54677U 22166AM 26162.24709234 .00000078 00000+0 15818-3 0 9994 
2 54677 87.9254 245.1704 0001855 93.3366 266.7980 13.21826817170654 
1 54678U 22166AN 26162.18821803 .00000031 00000+0 42569-4 0 9998 
2 54678 87.9253 245.1821 0002069 101.7992 258.3374 13.21827653170733 
1 54679U 22166AP 26162.18839643 .00000064 00000+0 12239-3 0 9996 
2 54679 87.9252 245.1745 0002087 89.4427 270.6946 13.21847282170623 
1 54680U 22166AQ 26162.20825308 -.00000049 00000+0 -16080-3 0 9997 
2 54680 87.9103 229.9615 0001648 89.3847 270.7473 13.16594739171271 
1 54681U 22166AR 26162.19324016 .00000037 00000+0 58817-4 0 9996 
2 54681 87.9254 245.1707 0001726 96.9170 263.2160 13.21824077170749 
1 55140U 23004A 26162.26219457 .00000038 00000+0 65676-4 0 9991 
2 55140 87.9137 7.0437 0002196 89.7493 270.3890 13.17648620166809 
1 55141U 23004B 26161.97725567 .00000481 00000+0 13005-2 0 9992 
2 55141 87.8945 351.9059 0001880 83.2697 276.8646 13.12443180167249 
1 55142U 23004C 26162.15485601 .00000175 00000+0 45772-3 0 9993 
2 55142 87.8899 22.2583 0001835 90.1061 270.0278 13.11416385165151 
1 55143U 23004D 26162.24550118 .00000014 00000+0 35641-5 0 9998 
2 55143 87.9158 336.6524 0001617 88.8113 271.3204 13.18684987168910 
1 55144U 23004E 26162.23875993 .00000003 00000+0 -25832-4 0 9998 
2 55144 87.9156 336.6535 0001674 96.2936 263.8387 13.18685350168913 
1 55145U 23004F 26162.23201871 .00000018 00000+0 11883-4 0 9993 
2 55145 87.9157 336.6441 0001585 96.3061 263.8251 13.18686453168928 
1 55146U 23004G 26162.22527097 .00000052 00000+0 99354-4 0 9991 
2 55146 87.9148 336.6741 0001941 104.4529 255.6818 13.18684721168911 
1 55147U 23004H 26161.99090143 .00000044 00000+0 78307-4 0 9998 
2 55147 87.9158 336.7044 0001784 103.5494 256.5837 13.18685377168881 
1 55148U 23004J 26162.14244724 -.00000014 00000+0 -72930-4 0 9998 
2 55148 87.8957 321.4230 0001336 123.7770 236.3487 13.13469166169384 
1 55149U 23004K 26161.98245794 .00000050 00000+0 93600-4 0 9993 
2 55149 87.9156 336.7038 0002226 96.2778 263.8608 13.18684584168874 
1 55150U 23004L 26162.20335827 .00000049 00000+0 91617-4 0 9992 
2 55150 87.9156 336.6592 0001966 130.4669 229.6635 13.18687771168916 
