OBJECT_NAME,OBJECT_ID,EPOCH,MEAN_MOTION,ECCENTRICITY,INCLINATION,RA_OF_ASC_NODE,ARG_OF_PERICENTER,MEAN_ANOMALY,EPHEMERIS_TYPE,CLASSIFICATION_TYPE,NORAD_CAT_ID,ELEMENT_SET_NO,REV_AT_EPOCH,BSTAR,MEAN_MOTION_DOT,MEAN_MOTION_DDOT
ONEWEB-0597,2022-166X,2026-06-11T05:34:00.645888,13.21826658,.00020443,87.9253,245.1724,95.8491,264.2876,0,U,54663,999,17075,.16633811E-3,.82E-6,0
ONEWEB-0600,2022-166Y,2026-06-11T05:07:20.143776,13.21823944,.00018538,87.9253,245.1674,95.6498,264.4847,0,U,54664,999,17072,-.89898419E-4,-.24E-6,0
ONEWEB-0601,2022-166Z,2026-06-11T04:55:14.453760,13.21825350,.00021551,87.9254,245.1852,93.0229,267.1152,0,U,54665,999,17091,-.7065269E-5,.1E-6,0
ONEWEB-0602,2022-166AA,2026-06-11T05:54:35.440992,13.21826226,.00018064,87.9253,245.1830,93.8047,266.3293,0,U,54666,999,17076,.19260657E-3,.93E-6,0
ONEWEB-0603,2022-166AB,2026-06-11T06:03:04.994496,13.21826381,.00020016,87.9262,245.1382,96.1343,264.0019,0,U,54667,999,17069,.90543986E-4,.5E-6,0
ONEWEB-0604,2022-166AC,2026-06-11T05:46:06.743712,13.21827756,.00020042,87.9264,245.1560,101.5163,258.6196,0,U,54668,999,17065,.11270834E-3,.6E-6,0
ONEWEB-0605,2022-166AD,2026-06-11T05:36:26.406144,13.21826783,.00026093,87.9256,245.1713,93.1824,266.9609,0,U,54669,999,17072,.10560597E-3,.57E-6,0
ONEWEB-0606,2022-166AE,2026-06-11T04:18:55.322208,13.21826851,.00019819,87.9254,245.1946,104.4954,255.6400,0,U,54670,999,17077,.12064942E-3,.63E-6,0
ONEWEB-0607,2022-166AF,2026-06-11T05:19:26.873184,13.21824234,.00019659,87.9261,245.1568,94.3101,265.8258,0,U,54671,999,17075,.32968786E-4,.27E-6,0
ONEWEB-0608,2022-166AG,2026-06-11T05:29:09.159936,13.21827699,.00023781,87.9264,245.1520,88.8650,271.2757,0,U,54672,999,17076,.52696785E-4,.35E-6,0
ONEWEB-0610,2022-166AH,2026-06-11T05:00:04.157280,13.21824371,.00022045,87.9254,245.1708,82.6864,277.4521,0,U,54673,999,17066,.1005961E-3,.55E-6,0
ONEWEB-0611,2022-166AJ,2026-06-11T04:50:22.881408,13.21827510,.00020013,87.9254,245.1681,102.5919,257.5439,0,U,54674,999,17065,.13358096E-4,.19E-6,0
ONEWEB-0612,2022-166AK,2026-06-11T05:09:46.564128,13.21825375,.00021056,87.9264,245.1602,95.0893,265.0482,0,U,54675,999,17064,.69180326E-4,.42E-6,0
ONEWEB-0615,2022-166AL,2026-06-11T04:40:43.409568,13.21826525,.0001817,87.9257,245.1796,104.5774,255.5562,0,U,54676,999,17065,.94049798E-4,.52E-6,0
ONEWEB-0655,2022-166AM,2026-06-11T05:55:48.778176,13.21826817,.00018552,87.9254,245.1704,93.3366,266.7980,0,U,54677,999,17065,.15817546E-3,.78E-6,0
ONEWEB-0659,2022-166AN,2026-06-11T04:31:02.037792,13.21827653,.00020699,87.9253,245.1821,101.7992,258.3374,0,U,54678,999,17073,.42568891E-4,.31E-6,0
ONEWEB-0685,2022-166AP,2026-06-11T04:31:17.451552,13.21847282,.00020875,87.9252,245.1745,89.4427,270.6946,0,U,54679,999,17062,.12238839E-3,.64E-6,0
ONEWEB-0712,2022-166AQ,2026-06-11T04:59:53.066112,13.16594739,.00016488,87.9103,229.9615,89.3847,270.7473,0,U,54680,999,17127,-.16080427E-3,-.49E-6,0
ONEWEB-0714,2022-166AR,2026-06-11T04:38:15.949824,13.21824077,.00017264,87.9254,245.1707,96.9170,263.2160,0,U,54681,999,17074,.58816713E-4,.37E-6,0
ONEWEB-0532,2023-004A,2026-06-11T06:17:33.610848,13.17648620,.00021967,87.9137,7.0437,89.7493,270.3890,0,U,55140,999,16680,.65676353E-4,.38E-6,0
ONEWEB-0533,2023-004B,2026-06-10T23:27:14.889888,13.12443180,.00018806,87.8945,351.9059,83.2697,276.8646,0,U,55141,999,16724,.13004606E-2,.481E-5,0
ONEWEB-0541,2023-004C,2026-06-11T03:42:59.559264,13.11416385,.00018355,87.8899,22.2583,90.1061,270.0278,0,U,55142,999,16515,.45772071E-3,.175E-5,0
ONEWEB-0543,2023-004D,2026-06-11T05:53:31.301952,13.18684987,.00016171,87.9158,336.6524,88.8113,271.3204,0,U,55143,999,16891,.356414E-5,.14E-6,0
ONEWEB-0544,2023-004E,2026-06-11T05:43:48.857952,13.18685350,.00016742,87.9156,336.6535,96.2936,263.8387,0,U,55144,999,16891,-.25832323E-4,.3E-7,0
ONEWEB-0560,2023-004F,2026-06-11T05:34:06.416544,13.18686453,.00015852,87.9157,336.6441,96.3061,263.8251,0,U,55145,999,16892,.11882598E-4,.18E-6,0
ONEWEB-0565,2023-004G,2026-06-11T05:24:23.411808,13.18684721,.00019412,87.9148,336.6741,104.4529,255.6818,0,U,55146,999,16891,.99353852E-4,.52E-6,0
ONEWEB-0567,2023-004H,2026-06-10T23:46:53.883552,13.18685377,.00017846,87.9158,336.7044,103.5494,256.5837,0,U,55147,999,16888,.78306783E-4,.44E-6,0
ONEWEB-0569,2023-004J,2026-06-11T03:25:07.441536,13.13469166,.00013369,87.8957,321.4230,123.7770,236.3487,0,U,55148,999,16938,-.72929689E-4,-.14E-6,0
ONEWEB-0570,2023-004K,2026-06-10T23:34:44.366016,13.18684584,.00022269,87.9156,336.7038,96.2778,263.8608,0,U,55149,999,16887,.93600214E-4,.5E-6,0
ONEWEB-0571,2023-004L,2026-06-11T04:52:50.154528,13.18687771,.00019665,87.9156,336.6592,130.4669,229.6635,0,U,55150,999,16891,.91616567E-4,.49E-6,0
